{
"type": "FeatureCollection",
"name": "Population distribution centroid",
"crs": { "type": "name", "properties": { "name": "urn:ogc:def:crs:OGC:1.3:CRS84" } },
"features": [
{ "type": "Feature", "properties": { "GID_3": "TZA.2.2.2_1", "GID_0": "TZA", "COUNTRY": "Tanzania", "GID_1": "TZA.2_1", "NAME_1": "Dar es Salaam", "NL_NAME_1": "NA", "GID_2": "TZA.2.2_1", "NAME_2": "Kinondoni", "NL_NAME_2": "NA", "NAME_3": "Goba", "VARNAME_3": "NA", "NL_NAME_3": "NA", "TYPE_3": "Wodi", "ENGTYPE_3": "Ward", "CC_3": "142", "HASC_3": "NA", "population": 140576 }, "geometry": { "type": "Point", "coordinates": [ 39.1535166781321, -6.730901296674098 ] } },
{ "type": "Feature", "properties": { "GID_3": "TZA.2.2.5_1", "GID_0": "TZA", "COUNTRY": "Tanzania", "GID_1": "TZA.2_1", "NAME_1": "Dar es Salaam", "NL_NAME_1": "NA", "GID_2": "TZA.2.2_1", "NAME_2": "Kinondoni", "NL_NAME_2": "NA", "NAME_3": "Kibamba", "VARNAME_3": "NA", "NL_NAME_3": "NA", "TYPE_3": "Wodi", "ENGTYPE_3": "Ward", "CC_3": "132", "HASC_3": "NA", "population": 43191 }, "geometry": { "type": "Point", "coordinates": [ 39.039166242025487, -6.772454243621114 ] } },
{ "type": "Feature", "properties": { "GID_3": "TZA.2.2.8_1", "GID_0": "TZA", "COUNTRY": "Tanzania", "GID_1": "TZA.2_1", "NAME_1": "Dar es Salaam", "NL_NAME_1": "NA", "GID_2": "TZA.2.2_1", "NAME_2": "Kinondoni", "NL_NAME_2": "NA", "NAME_3": "Kimara", "VARNAME_3": "NA", "NL_NAME_3": "NA", "TYPE_3": "Wodi", "ENGTYPE_3": "Ward", "CC_3": "242", "HASC_3": "NA", "population": 96995 }, "geometry": { "type": "Point", "coordinates": [ 39.169945552037092, -6.802091149836991 ] } },
{ "type": "Feature", "properties": { "GID_3": "TZA.2.2.11_1", "GID_0": "TZA", "COUNTRY": "Tanzania", "GID_1": "TZA.2_1", "NAME_1": "Dar es Salaam", "NL_NAME_1": "NA", "GID_2": "TZA.2.2_1", "NAME_2": "Kinondoni", "NL_NAME_2": "NA", "NAME_3": "Kwembe", "VARNAME_3": "NA", "NL_NAME_3": "NA", "TYPE_3": "Wodi", "ENGTYPE_3": "Ward", "CC_3": "292", "HASC_3": "NA", "population": 93457 }, "geometry": { "type": "Point", "coordinates": [ 39.081938243553836, -6.820676589711012 ] } },
{ "type": "Feature", "properties": { "GID_3": "TZA.2.2.12_1", "GID_0": "TZA", "COUNTRY": "Tanzania", "GID_1": "TZA.2_1", "NAME_1": "Dar es Salaam", "NL_NAME_1": "NA", "GID_2": "TZA.2.2_1", "NAME_2": "Kinondoni", "NL_NAME_2": "NA", "NAME_3": "Mabibo", "VARNAME_3": "NA", "NL_NAME_3": "NA", "TYPE_3": "Wodi", "ENGTYPE_3": "Ward", "CC_3": "102", "HASC_3": "NA", "population": 74887 }, "geometry": { "type": "Point", "coordinates": [ 39.22561539548115, -6.809737639456836 ] } },
{ "type": "Feature", "properties": { "GID_3": "TZA.2.2.16_1", "GID_0": "TZA", "COUNTRY": "Tanzania", "GID_1": "TZA.2_1", "NAME_1": "Dar es Salaam", "NL_NAME_1": "NA", "GID_2": "TZA.2.2_1", "NAME_2": "Kinondoni", "NL_NAME_2": "NA", "NAME_3": "Makuburi", "VARNAME_3": "NA", "NL_NAME_3": "NA", "TYPE_3": "Wodi", "ENGTYPE_3": "Ward", "CC_3": "192", "HASC_3": "NA", "population": 50866 }, "geometry": { "type": "Point", "coordinates": [ 39.200076753709816, -6.808688840131621 ] } },
{ "type": "Feature", "properties": { "GID_3": "TZA.2.2.18_1", "GID_0": "TZA", "COUNTRY": "Tanzania", "GID_1": "TZA.2_1", "NAME_1": "Dar es Salaam", "NL_NAME_1": "NA", "GID_2": "TZA.2.2_1", "NAME_2": "Kinondoni", "NL_NAME_2": "NA", "NAME_3": "Makurumla", "VARNAME_3": "NA", "NL_NAME_3": "NA", "TYPE_3": "Wodi", "ENGTYPE_3": "Ward", "CC_3": "022", "HASC_3": "NA", "population": 50677 }, "geometry": { "type": "Point", "coordinates": [ 39.242557580851958, -6.805920392746582 ] } },
{ "type": "Feature", "properties": { "GID_3": "TZA.2.2.19_1", "GID_0": "TZA", "COUNTRY": "Tanzania", "GID_1": "TZA.2_1", "NAME_1": "Dar es Salaam", "NL_NAME_1": "NA", "GID_2": "TZA.2.2_1", "NAME_2": "Kinondoni", "NL_NAME_2": "NA", "NAME_3": "Manzese", "VARNAME_3": "NA", "NL_NAME_3": "NA", "TYPE_3": "Wodi", "ENGTYPE_3": "Ward", "CC_3": "112", "HASC_3": "NA", "population": 62251 }, "geometry": { "type": "Point", "coordinates": [ 39.231337651027786, -6.796293856627087 ] } },
{ "type": "Feature", "properties": { "GID_3": "TZA.2.2.20_1", "GID_0": "TZA", "COUNTRY": "Tanzania", "GID_1": "TZA.2_1", "NAME_1": "Dar es Salaam", "NL_NAME_1": "NA", "GID_2": "TZA.2.2_1", "NAME_2": "Kinondoni", "NL_NAME_2": "NA", "NAME_3": "Mbezi", "VARNAME_3": "NA", "NL_NAME_3": "NA", "TYPE_3": "Wodi", "ENGTYPE_3": "Ward", "CC_3": "262", "HASC_3": "NA", "population": 143803 }, "geometry": { "type": "Point", "coordinates": [ 39.092324461390831, -6.742493947028551 ] } },
{ "type": "Feature", "properties": { "GID_3": "TZA.2.2.22_1", "GID_0": "TZA", "COUNTRY": "Tanzania", "GID_1": "TZA.2_1", "NAME_1": "Dar es Salaam", "NL_NAME_1": "NA", "GID_2": "TZA.2.2_1", "NAME_2": "Kinondoni", "NL_NAME_2": "NA", "NAME_3": "Mburahati", "VARNAME_3": "NA", "NL_NAME_3": "NA", "TYPE_3": "Wodi", "ENGTYPE_3": "Ward", "CC_3": "202", "HASC_3": "NA", "population": 26215 }, "geometry": { "type": "Point", "coordinates": [ 39.242080186712528, -6.812665238433838 ] } },
{ "type": "Feature", "properties": { "GID_3": "TZA.2.2.26_1", "GID_0": "TZA", "COUNTRY": "Tanzania", "GID_1": "TZA.2_1", "NAME_1": "Dar es Salaam", "NL_NAME_1": "NA", "GID_2": "TZA.2.2_1", "NAME_2": "Kinondoni", "NL_NAME_2": "NA", "NAME_3": "Msigani", "VARNAME_3": "NA", "NL_NAME_3": "NA", "TYPE_3": "Wodi", "ENGTYPE_3": "Ward", "CC_3": "302", "HASC_3": "NA", "population": 82988 }, "geometry": { "type": "Point", "coordinates": [ 39.116669174533904, -6.80285245210981 ] } },
{ "type": "Feature", "properties": { "GID_3": "TZA.2.2.30_1", "GID_0": "TZA", "COUNTRY": "Tanzania", "GID_1": "TZA.2_1", "NAME_1": "Dar es Salaam", "NL_NAME_1": "NA", "GID_2": "TZA.2.2_1", "NAME_2": "Kinondoni", "NL_NAME_2": "NA", "NAME_3": "Saranga", "VARNAME_3": "NA", "NL_NAME_3": "NA", "TYPE_3": "Wodi", "ENGTYPE_3": "Ward", "CC_3": "282", "HASC_3": "NA", "population": 145274 }, "geometry": { "type": "Point", "coordinates": [ 39.146851319943082, -6.790293984015236 ] } },
{ "type": "Feature", "properties": { "GID_3": "TZA.2.2.31_1", "GID_0": "TZA", "COUNTRY": "Tanzania", "GID_1": "TZA.2_1", "NAME_1": "Dar es Salaam", "NL_NAME_1": "NA", "GID_2": "TZA.2.2_1", "NAME_2": "Kinondoni", "NL_NAME_2": "NA", "NAME_3": "Sinza", "VARNAME_3": "NA", "NL_NAME_3": "NA", "TYPE_3": "Wodi", "ENGTYPE_3": "Ward", "CC_3": "222", "HASC_3": "NA", "population": 31396 }, "geometry": { "type": "Point", "coordinates": [ 39.222781209018059, -6.78374933724553 ] } },
{ "type": "Feature", "properties": { "GID_3": "TZA.2.2.33_1", "GID_0": "TZA", "COUNTRY": "Tanzania", "GID_1": "TZA.2_1", "NAME_1": "Dar es Salaam", "NL_NAME_1": "NA", "GID_2": "TZA.2.2_1", "NAME_2": "Kinondoni", "NL_NAME_2": "NA", "NAME_3": "Ubungo", "VARNAME_3": "NA", "NL_NAME_3": "NA", "TYPE_3": "Wodi", "ENGTYPE_3": "Ward", "CC_3": "122", "HASC_3": "NA", "population": 44340 }, "geometry": { "type": "Point", "coordinates": [ 39.206668233947198, -6.784418354604304 ] } }
]
}
